{"type": "FeatureCollection", "features": [ {"type": "Feature", "properties": {"norad_id": 38779, "name": "GSAT-10 (GAGAN/PRN 128)", "group": "gnss", "lat": -0.028201675289310703, "lon": -98.64189346213047, "alt_km": 35793.58638029408, "timestamp": "2025-12-22T05:49:03.741548+00:00", "meta": {"OBJECT_NAME": "GSAT-10 (GAGAN/PRN 128)", "OBJECT_ID": "2012-051B", "EPOCH": "2025-12-21T18:17:27.161088", "MEAN_MOTION": 1.00271943, "ECCENTRICITY": 0.0002371, "INCLINATION": 0.0702, "RA_OF_ASC_NODE": 263.9995, "ARG_OF_PERICENTER": 218.9592, "MEAN_ANOMALY": 325.013, "EPHEMERIS_TYPE": 0, "CLASSIFICATION_TYPE": "U", "NORAD_CAT_ID": 38779, "ELEMENT_SET_NO": 999, "REV_AT_EPOCH": 4832, "BSTAR": 0, "MEAN_MOTION_DOT": -1.43e-06, "MEAN_MOTION_DDOT": 0}, "tle": {"line1": "1 38779U 12051B   25355.76211992 -.00000143  00000+0  00000+0 0  9997", "line2": "2 38779   0.0702 263.9995 0002371 218.9592 325.0130  1.00271943 48325"}}, "geometry": {"type": "Point", "coordinates": [-98.64189346213047, -0.028201675289310703]}}, {"type": "Feature", "properties": {"norad_id": 38833, "name": "GPS BIIF-3  (PRN 24)", "group": "gnss", "lat": -43.47381593873255, "lon": 106.36787827994102, "alt_km": 20435.373861224787, "timestamp": "2025-12-22T05:49:03.741564+00:00", "meta": {"OBJECT_NAME": "GPS BIIF-3  (PRN 24)", "OBJECT_ID": "2012-053A", "EPOCH": "2025-12-21T07:50:41.138592", "MEAN_MOTION": 2.00565076, "ECCENTRICITY": 0.0176016, "INCLINATION": 53.5593, "RA_OF_ASC_NODE": 150.887, "ARG_OF_PERICENTER": 64.1244, "MEAN_ANOMALY": 297.6553, "EPHEMERIS_TYPE": 0, "CLASSIFICATION_TYPE": "U", "NORAD_CAT_ID": 38833, "ELEMENT_SET_NO": 999, "REV_AT_EPOCH": 9587, "BSTAR": 0, "MEAN_MOTION_DOT": 6e-07, "MEAN_MOTION_DDOT": 0}, "tle": {"line1": "1 38833U 12053A   25355.32686503  .00000060  00000+0  00000+0 0  9993", "line2": "2 38833  53.5593 150.8870 0176016  64.1244 297.6553  2.00565076 95875"}}, "geometry": {"type": "Point", "coordinates": [106.36787827994102, -43.47381593873255]}}, {"type": "Feature", "properties": {"norad_id": 38857, "name": "GSAT0103 (GALILEO-FM3)", "group": "gnss", "lat": -40.3292103670499, "lon": 71.04575438547124, "alt_km": 23220.533466643854, "timestamp": "2025-12-22T05:49:03.741578+00:00", "meta": {"OBJECT_NAME": "GSAT0103 (GALILEO-FM3)", "OBJECT_ID": "2012-055A", "EPOCH": "2025-12-18T05:17:11.481792", "MEAN_MOTION": 1.70473412, "ECCENTRICITY": 0.00028558, "INCLINATION": 55.6954, "RA_OF_ASC_NODE": 106.5161, "ARG_OF_PERICENTER": 269.0808, "MEAN_ANOMALY": 90.8455, "EPHEMERIS_TYPE": 0, "CLASSIFICATION_TYPE": "U", "NORAD_CAT_ID": 38857, "ELEMENT_SET_NO": 999, "REV_AT_EPOCH": 8192, "BSTAR": 0, "MEAN_MOTION_DOT": -7e-08, "MEAN_MOTION_DDOT": 0}, "tle": {"line1": "1 38857U 12055A   25352.22027178 -.00000007  00000+0  00000+0 0  9996", "line2": "2 38857  55.6954 106.5161 0002855 269.0808  90.8455  1.70473412 81920"}}, "geometry": {"type": "Point", "coordinates": [71.04575438547124, -40.3292103670499]}}, {"type": "Feature", "properties": {"norad_id": 38953, "name": "BEIDOU-2 G6 (C02)", "group": "gnss", "lat": -0.4889415752810288, "lon": -97.86759423107969, "alt_km": 35796.407500778616, "timestamp": "2025-12-22T05:49:03.741591+00:00", "meta": {"OBJECT_NAME": "BEIDOU-2 G6 (C02)", "OBJECT_ID": "2012-059A", "EPOCH": "2025-12-21T20:26:44.535840", "MEAN_MOTION": 1.00268615, "ECCENTRICITY": 0.0008286, "INCLINATION": 3.971, "RA_OF_ASC_NODE": 75.4173, "ARG_OF_PERICENTER": 292.3121, "MEAN_ANOMALY": 113.552, "EPHEMERIS_TYPE": 0, "CLASSIFICATION_TYPE": "U", "NORAD_CAT_ID": 38953, "ELEMENT_SET_NO": 999, "REV_AT_EPOCH": 4813, "BSTAR": 0, "MEAN_MOTION_DOT": -1.54e-06, "MEAN_MOTION_DDOT": 0}, "tle": {"line1": "1 38953U 12059A   25355.85190435 -.00000154  00000+0  00000+0 0  9999", "line2": "2 38953   3.9710  75.4173 0008286 292.3121 113.5520  1.00268615 48133"}}, "geometry": {"type": "Point", "coordinates": [-97.86759423107969, -0.4889415752810288]}}, {"type": "Feature", "properties": {"norad_id": 38977, "name": "LUCH 5B (SDCM/PRN 125)", "group": "gnss", "lat": 9.482467128991518, "lon": 162.20819513495303, "alt_km": 35782.537348102116, "timestamp": "2025-12-22T05:49:03.741602+00:00", "meta": {"OBJECT_NAME": "LUCH 5B (SDCM/PRN 125)", "OBJECT_ID": "2012-061A", "EPOCH": "2025-12-21T09:41:49.493184", "MEAN_MOTION": 1.00272311, "ECCENTRICITY": 0.00065904, "INCLINATION": 10.0988, "RA_OF_ASC_NODE": 51.6228, "ARG_OF_PERICENTER": 195.5411, "MEAN_ANOMALY": 332.1896, "EPHEMERIS_TYPE": 0, "CLASSIFICATION_TYPE": "U", "NORAD_CAT_ID": 38977, "ELEMENT_SET_NO": 999, "REV_AT_EPOCH": 4782, "BSTAR": 0, "MEAN_MOTION_DOT": -1.21e-06, "MEAN_MOTION_DDOT": 0}, "tle": {"line1": "1 38977U 12061A   25355.40404506 -.00000121  00000+0  00000+0 0  9990", "line2": "2 38977  10.0988  51.6228 0006590 195.5411 332.1896  1.00272311 47822"}}, "geometry": {"type": "Point", "coordinates": [162.20819513495303, 9.482467128991518]}}, {"type": "Feature", "properties": {"norad_id": 39155, "name": "COSMOS 2485 (747)", "group": "gnss", "lat": -5.4809364432556755, "lon": -97.91413692796479, "alt_km": 19085.419545891207, "timestamp": "2025-12-22T05:49:03.741615+00:00", "meta": {"OBJECT_NAME": "COSMOS 2485 (747)", "OBJECT_ID": "2013-019A", "EPOCH": "2025-12-20T02:56:15.241632", "MEAN_MOTION": 2.1310322, "ECCENTRICITY": 0.0024876, "INCLINATION": 65.3174, "RA_OF_ASC_NODE": 79.6189, "ARG_OF_PERICENTER": 230.2075, "MEAN_ANOMALY": 129.6042, "EPHEMERIS_TYPE": 0, "CLASSIFICATION_TYPE": "U", "NORAD_CAT_ID": 39155, "ELEMENT_SET_NO": 999, "REV_AT_EPOCH": 9846, "BSTAR": 0, "MEAN_MOTION_DOT": -2e-07, "MEAN_MOTION_DDOT": 0}, "tle": {"line1": "1 39155U 13019A   25354.12239863 -.00000020  00000+0  00000+0 0  9991", "line2": "2 39155  65.3174  79.6189 0024876 230.2075 129.6042  2.13103220 98462"}}, "geometry": {"type": "Point", "coordinates": [-97.91413692796479, -5.4809364432556755]}}, {"type": "Feature", "properties": {"norad_id": 39166, "name": "GPS BIIF-4  (PRN 27)", "group": "gnss", "lat": 31.7187811819554, "lon": -57.839523778571426, "alt_km": 19814.887047088872, "timestamp": "2025-12-22T05:49:03.741626+00:00", "meta": {"OBJECT_NAME": "GPS BIIF-4  (PRN 27)", "OBJECT_ID": "2013-023A", "EPOCH": "2025-12-21T04:35:02.241888", "MEAN_MOTION": 2.00564674, "ECCENTRICITY": 0.0138431, "INCLINATION": 54.6447, "RA_OF_ASC_NODE": 276.2247, "ARG_OF_PERICENTER": 48.7169, "MEAN_ANOMALY": 312.5052, "EPHEMERIS_TYPE": 0, "CLASSIFICATION_TYPE": "U", "NORAD_CAT_ID": 39166, "ELEMENT_SET_NO": 999, "REV_AT_EPOCH": 9231, "BSTAR": 0, "MEAN_MOTION_DOT": -1.7e-07, "MEAN_MOTION_DDOT": 0}, "tle": {"line1": "1 39166U 13023A   25355.19099817 -.00000017  00000+0  00000+0 0  9995", "line2": "2 39166  54.6447 276.2247 0138431  48.7169 312.5052  2.00564674 92319"}}, "geometry": {"type": "Point", "coordinates": [-57.839523778571426, 31.7187811819554]}}, {"type": "Feature", "properties": {"norad_id": 39199, "name": "IRNSS-1A", "group": "gnss", "lat": 7.747368046979288, "lon": -124.61258574703683, "alt_km": 35711.015669464476, "timestamp": "2025-12-22T05:49:03.741637+00:00", "meta": {"OBJECT_NAME": "IRNSS-1A", "OBJECT_ID": "2013-034A", "EPOCH": "2025-12-18T18:41:43.776960", "MEAN_MOTION": 1.00272479, "ECCENTRICITY": 0.0024472, "INCLINATION": 35.3183, "RA_OF_ASC_NODE": 66.4661, "ARG_OF_PERICENTER": 211.0525, "MEAN_ANOMALY": 145.3931, "EPHEMERIS_TYPE": 0, "CLASSIFICATION_TYPE": "U", "NORAD_CAT_ID": 39199, "ELEMENT_SET_NO": 999, "REV_AT_EPOCH": 4555, "BSTAR": 0, "MEAN_MOTION_DOT": 6.5e-07, "MEAN_MOTION_DDOT": 0}, "tle": {"line1": "1 39199U 13034A   25352.77897890  .00000065  00000+0  00000+0 0  9993", "line2": "2 39199  35.3183  66.4661 0024472 211.0525 145.3931  1.00272479 45557"}}, "geometry": {"type": "Point", "coordinates": [-124.61258574703683, 7.747368046979288]}}, {"type": "Feature", "properties": {"norad_id": 39533, "name": "GPS BIIF-5  (PRN 30)", "group": "gnss", "lat": 33.18705255977107, "lon": -174.61466401558613, "alt_km": 20390.251573878995, "timestamp": "2025-12-22T05:49:03.741649+00:00", "meta": {"OBJECT_NAME": "GPS BIIF-5  (PRN 30)", "OBJECT_ID": "2014-008A", "EPOCH": "2025-12-20T16:28:24.690432", "MEAN_MOTION": 2.00548724, "ECCENTRICITY": 0.0079574, "INCLINATION": 53.6246, "RA_OF_ASC_NODE": 156.6308, "ARG_OF_PERICENTER": 226.1122, "MEAN_ANOMALY": 133.2164, "EPHEMERIS_TYPE": 0, "CLASSIFICATION_TYPE": "U", "NORAD_CAT_ID": 39533, "ELEMENT_SET_NO": 999, "REV_AT_EPOCH": 8610, "BSTAR": 0, "MEAN_MOTION_DOT": 6.5e-07, "MEAN_MOTION_DDOT": 0}, "tle": {"line1": "1 39533U 14008A   25354.68639688  .00000065  00000+0  00000+0 0  9998", "line2": "2 39533  53.6246 156.6308 0079574 226.1122 133.2164  2.00548724 86105"}}, "geometry": {"type": "Point", "coordinates": [-174.61466401558613, 33.18705255977107]}}, {"type": "Feature", "properties": {"norad_id": 39617, "name": "ASTRA 5B (EGNOS/PRN 123)", "group": "gnss", "lat": -0.0211624922208892, "lon": -158.24109408052942, "alt_km": 35782.03163896082, "timestamp": "2025-12-22T05:49:03.741663+00:00", "meta": {"OBJECT_NAME": "ASTRA 5B (EGNOS/PRN 123)", "OBJECT_ID": "2014-011B", "EPOCH": "2025-12-21T18:26:41.031744", "MEAN_MOTION": 1.00270041, "ECCENTRICITY": 0.0004459, "INCLINATION": 0.0434, "RA_OF_ASC_NODE": 4.0624, "ARG_OF_PERICENTER": 274.0451, "MEAN_ANOMALY": 112.6499, "EPHEMERIS_TYPE": 0, "CLASSIFICATION_TYPE": "U", "NORAD_CAT_ID": 39617, "ELEMENT_SET_NO": 999, "REV_AT_EPOCH": 4288, "BSTAR": 0, "MEAN_MOTION_DOT": 1.59e-06, "MEAN_MOTION_DDOT": 0}, "tle": {"line1": "1 39617U 14011B   25355.76853046  .00000159  00000+0  00000+0 0  9995", "line2": "2 39617   0.0434   4.0624 0004459 274.0451 112.6499  1.00270041 42889"}}, "geometry": {"type": "Point", "coordinates": [-158.24109408052942, -0.0211624922208892]}}]}